[{"OBJECT_NAME":"STARLINK-3602","OBJECT_ID":"2022-017Z","EPOCH":"2026-02-12T03:36:54.001728","MEAN_MOTION":15.08838118,"ECCENTRICITY":9.46e-5,"INCLINATION":53.2164,"RA_OF_ASC_NODE":103.7711,"ARG_OF_PERICENTER":82.0669,"MEAN_ANOMALY":278.043,"EPHEMERIS_TYPE":0,"CLASSIFICATION_TYPE":"U","NORAD_CAT_ID":51791,"ELEMENT_SET_NO":999,"REV_AT_EPOCH":22006,"BSTAR":9.5850309e-5,"MEAN_MOTION_DOT":1.238e-5,"MEAN_MOTION_DDOT":0},{"OBJECT_NAME":"STARLINK-3626","OBJECT_ID":"2022-017AA","EPOCH":"2026-02-12T04:45:47.348352","MEAN_MOTION":15.08834694,"ECCENTRICITY":0.00012707,"INCLINATION":53.2171,"RA_OF_ASC_NODE":103.5539,"ARG_OF_PERICENTER":86.9107,"MEAN_ANOMALY":273.2031,"EPHEMERIS_TYPE":0,"CLASSIFICATION_TYPE":"U","NORAD_CAT_ID":51792,"ELEMENT_SET_NO":999,"REV_AT_EPOCH":22012,"BSTAR":3.3915008e-5,"MEAN_MOTION_DOT":2.52e-6,"MEAN_MOTION_DDOT":0},{"OBJECT_NAME":"STARLINK-3633","OBJECT_ID":"2022-017AB","EPOCH":"2026-02-12T06:00:05.025888","MEAN_MOTION":15.2226833,"ECCENTRICITY":0.0001162,"INCLINATION":53.2196,"RA_OF_ASC_NODE":101.6297,"ARG_OF_PERICENTER":49.2049,"MEAN_ANOMALY":310.9049,"EPHEMERIS_TYPE":0,"CLASSIFICATION_TYPE":"U","NORAD_CAT_ID":51793,"ELEMENT_SET_NO":999,"REV_AT_EPOCH":22015,"BSTAR":0.00032938379,"MEAN_MOTION_DOT":7.354e-5,"MEAN_MOTION_DDOT":0},{"OBJECT_NAME":"STARLINK-3573","OBJECT_ID":"2022-017AC","EPOCH":"2026-02-12T04:35:11.338080","MEAN_MOTION":15.08836243,"ECCENTRICITY":0.000155,"INCLINATION":53.2177,"RA_OF_ASC_NODE":103.5917,"ARG_OF_PERICENTER":95.9365,"MEAN_ANOMALY":264.1804,"EPHEMERIS_TYPE":0,"CLASSIFICATION_TYPE":"U","NORAD_CAT_ID":51794,"ELEMENT_SET_NO":999,"REV_AT_EPOCH":22007,"BSTAR":7.0127817e-5,"MEAN_MOTION_DOT":8.28e-6,"MEAN_MOTION_DDOT":0},{"OBJECT_NAME":"STARLINK-3586","OBJECT_ID":"2022-017AD","EPOCH":"2026-02-12T03:31:37.693056","MEAN_MOTION":15.08838268,"ECCENTRICITY":0.00015746,"INCLINATION":53.218,"RA_OF_ASC_NODE":103.9859,"ARG_OF_PERICENTER":109.5247,"MEAN_ANOMALY":250.5915,"EPHEMERIS_TYPE":0,"CLASSIFICATION_TYPE":"U","NORAD_CAT_ID":51795,"ELEMENT_SET_NO":999,"REV_AT_EPOCH":22006,"BSTAR":7.3209916e-5,"MEAN_MOTION_DOT":8.77e-6,"MEAN_MOTION_DDOT":0},{"OBJECT_NAME":"STARLINK-3634","OBJECT_ID":"2022-017AG","EPOCH":"2026-02-12T04:13:58.107936","MEAN_MOTION":15.08844337,"ECCENTRICITY":0.00010934,"INCLINATION":53.2172,"RA_OF_ASC_NODE":103.6542,"ARG_OF_PERICENTER":103.1824,"MEAN_ANOMALY":256.9291,"EPHEMERIS_TYPE":0,"CLASSIFICATION_TYPE":"U","NORAD_CAT_ID":51798,"ELEMENT_SET_NO":999,"REV_AT_EPOCH":22011,"BSTAR":0.00013985837,"MEAN_MOTION_DOT":1.939e-5,"MEAN_MOTION_DDOT":0},{"OBJECT_NAME":"STARLINK-3637","OBJECT_ID":"2022-017AH","EPOCH":"2026-02-12T04:29:53.162304","MEAN_MOTION":15.08836533,"ECCENTRICITY":0.00014185,"INCLINATION":53.2175,"RA_OF_ASC_NODE":103.6052,"ARG_OF_PERICENTER":101.9419,"MEAN_ANOMALY":258.1733,"EPHEMERIS_TYPE":0,"CLASSIFICATION_TYPE":"U","NORAD_CAT_ID":51799,"ELEMENT_SET_NO":999,"REV_AT_EPOCH":22007,"BSTAR":4.8177134e-5,"MEAN_MOTION_DOT":4.79e-6,"MEAN_MOTION_DDOT":0},{"OBJECT_NAME":"STARLINK-3592","OBJECT_ID":"2022-017AK","EPOCH":"2026-02-12T04:24:35.157600","MEAN_MOTION":15.08837705,"ECCENTRICITY":0.00015324,"INCLINATION":53.2176,"RA_OF_ASC_NODE":103.6222,"ARG_OF_PERICENTER":101.3735,"MEAN_ANOMALY":258.7429,"EPHEMERIS_TYPE":0,"CLASSIFICATION_TYPE":"U","NORAD_CAT_ID":51801,"ELEMENT_SET_NO":999,"REV_AT_EPOCH":22007,"BSTAR":8.801304e-6,"MEAN_MOTION_DOT":-1.48e-6,"MEAN_MOTION_DDOT":0},{"OBJECT_NAME":"STARLINK-3544","OBJECT_ID":"2022-017AM","EPOCH":"2026-02-11T04:17:54.201120","MEAN_MOTION":15.08841952,"ECCENTRICITY":0.00015465,"INCLINATION":53.2177,"RA_OF_ASC_NODE":108.1344,"ARG_OF_PERICENTER":84.5015,"MEAN_ANOMALY":275.6153,"EPHEMERIS_TYPE":0,"CLASSIFICATION_TYPE":"U","NORAD_CAT_ID":51803,"ELEMENT_SET_NO":999,"REV_AT_EPOCH":21991,"BSTAR":7.531778e-6,"MEAN_MOTION_DOT":-1.68e-6,"MEAN_MOTION_DDOT":0},{"OBJECT_NAME":"STARLINK-3601","OBJECT_ID":"2022-017AN","EPOCH":"2026-02-12T02:51:49.255776","MEAN_MOTION":15.08855345,"ECCENTRICITY":0.00012448,"INCLINATION":53.2184,"RA_OF_ASC_NODE":83.9133,"ARG_OF_PERICENTER":76.5422,"MEAN_ANOMALY":283.5709,"EPHEMERIS_TYPE":0,"CLASSIFICATION_TYPE":"U","NORAD_CAT_ID":51804,"ELEMENT_SET_NO":999,"REV_AT_EPOCH":22029,"BSTAR":0.00017231036,"MEAN_MOTION_DOT":2.457e-5,"MEAN_MOTION_DDOT":0},{"OBJECT_NAME":"STARLINK-3605","OBJECT_ID":"2022-017AP","EPOCH":"2026-02-12T02:57:09.556992","MEAN_MOTION":15.08839676,"ECCENTRICITY":0.00013505,"INCLINATION":53.2164,"RA_OF_ASC_NODE":83.9715,"ARG_OF_PERICENTER":88.046,"MEAN_ANOMALY":272.0686,"EPHEMERIS_TYPE":0,"CLASSIFICATION_TYPE":"U","NORAD_CAT_ID":51805,"ELEMENT_SET_NO":999,"REV_AT_EPOCH":22038,"BSTAR":4.8963848e-5,"MEAN_MOTION_DOT":4.91e-6,"MEAN_MOTION_DDOT":0},{"OBJECT_NAME":"STARLINK-3606","OBJECT_ID":"2022-017AR","EPOCH":"2026-02-11T03:26:14.219232","MEAN_MOTION":15.08837399,"ECCENTRICITY":0.00014318,"INCLINATION":53.2168,"RA_OF_ASC_NODE":98.2941,"ARG_OF_PERICENTER":82.4812,"MEAN_ANOMALY":277.6342,"EPHEMERIS_TYPE":0,"CLASSIFICATION_TYPE":"U","NORAD_CAT_ID":51807,"ELEMENT_SET_NO":999,"REV_AT_EPOCH":22010,"BSTAR":6.328805e-5,"MEAN_MOTION_DOT":7.19e-6,"MEAN_MOTION_DDOT":0},{"OBJECT_NAME":"STARLINK-3609","OBJECT_ID":"2022-017AS","EPOCH":"2026-02-12T02:55:49.537632","MEAN_MOTION":15.0883985,"ECCENTRICITY":0.00014859,"INCLINATION":53.2175,"RA_OF_ASC_NODE":93.8984,"ARG_OF_PERICENTER":100.1698,"MEAN_ANOMALY":259.9461,"EPHEMERIS_TYPE":0,"CLASSIFICATION_TYPE":"U","NORAD_CAT_ID":51808,"ELEMENT_SET_NO":999,"REV_AT_EPOCH":22010,"BSTAR":6.4889351e-5,"MEAN_MOTION_DOT":7.45e-6,"MEAN_MOTION_DDOT":0},{"OBJECT_NAME":"STARLINK-3607","OBJECT_ID":"2022-017AT","EPOCH":"2026-02-11T12:47:56.858208","MEAN_MOTION":15.08839538,"ECCENTRICITY":0.00013403,"INCLINATION":53.2167,"RA_OF_ASC_NODE":96.5037,"ARG_OF_PERICENTER":87.2568,"MEAN_ANOMALY":272.8577,"EPHEMERIS_TYPE":0,"CLASSIFICATION_TYPE":"U","NORAD_CAT_ID":51809,"ELEMENT_SET_NO":999,"REV_AT_EPOCH":22011,"BSTAR":2.2266759e-5,"MEAN_MOTION_DOT":6.6e-7,"MEAN_MOTION_DDOT":0},{"OBJECT_NAME":"STARLINK-3613","OBJECT_ID":"2022-017AU","EPOCH":"2026-02-12T02:25:25.347648","MEAN_MOTION":15.08847204,"ECCENTRICITY":0.00011868,"INCLINATION":53.2179,"RA_OF_ASC_NODE":84.2108,"ARG_OF_PERICENTER":103.6533,"MEAN_ANOMALY":256.4592,"EPHEMERIS_TYPE":0,"CLASSIFICATION_TYPE":"U","NORAD_CAT_ID":51810,"ELEMENT_SET_NO":999,"REV_AT_EPOCH":22021,"BSTAR":-0.00024774658,"MEAN_MOTION_DOT":-4.229e-5,"MEAN_MOTION_DDOT":0},{"OBJECT_NAME":"STARLINK-3569","OBJECT_ID":"2022-017AV","EPOCH":"2026-02-12T03:01:07.562208","MEAN_MOTION":15.08838085,"ECCENTRICITY":0.00014265,"INCLINATION":53.217,"RA_OF_ASC_NODE":93.8825,"ARG_OF_PERICENTER":80.0554,"MEAN_ANOMALY":280.0599,"EPHEMERIS_TYPE":0,"CLASSIFICATION_TYPE":"U","NORAD_CAT_ID":51811,"ELEMENT_SET_NO":999,"REV_AT_EPOCH":22010,"BSTAR":1.089359e-6,"MEAN_MOTION_DOT":-2.71e-6,"MEAN_MOTION_DDOT":0}]
