STARLINK-3602           
1 51791U 22017Z   26043.15062502  .00001238  00000+0  95850-4 0  9995
2 51791  53.2164 103.7711 0000946  82.0669 278.0430 15.08838118220063
STARLINK-3626           
1 51792U 22017AA  26043.19846468  .00000252  00000+0  33915-4 0  9990
2 51792  53.2171 103.5539 0001270  86.9107 273.2031 15.08834694220125
STARLINK-3633           
1 51793U 22017AB  26043.25005817  .00007354  00000+0  32938-3 0  9996
2 51793  53.2196 101.6297 0001162  49.2049 310.9049 15.22268330220155
STARLINK-3573           
1 51794U 22017AC  26043.19110345  .00000828  00000+0  70128-4 0  9996
2 51794  53.2177 103.5917 0001550  95.9365 264.1804 15.08836243220073
STARLINK-3586           
1 51795U 22017AD  26043.14696404  .00000877  00000+0  73210-4 0  9996
2 51795  53.2180 103.9859 0001574 109.5247 250.5915 15.08838268220064
STARLINK-3634           
1 51798U 22017AG  26043.17636699  .00001939  00000+0  13986-3 0  9995
2 51798  53.2172 103.6542 0001093 103.1824 256.9291 15.08844337220118
STARLINK-3637           
1 51799U 22017AH  26043.18742086  .00000479  00000+0  48177-4 0  9994
2 51799  53.2175 103.6052 0001418 101.9419 258.1733 15.08836533220074
STARLINK-3592           
1 51801U 22017AK  26043.18374025 -.00000148  00000+0  88013-5 0  9990
2 51801  53.2176 103.6222 0001532 101.3735 258.7429 15.08837705220070
STARLINK-3544           
1 51803U 22017AM  26042.17909955 -.00000168  00000+0  75318-5 0  9992
2 51803  53.2177 108.1344 0001546  84.5015 275.6153 15.08841952219918
STARLINK-3601           
1 51804U 22017AN  26043.11932009  .00002457  00000+0  17231-3 0  9994
2 51804  53.2184  83.9133 0001244  76.5422 283.5709 15.08855345220290
STARLINK-3605           
1 51805U 22017AP  26043.12302728  .00000491  00000+0  48964-4 0  9999
2 51805  53.2164  83.9715 0001350  88.0460 272.0686 15.08839676220389
STARLINK-3606           
1 51807U 22017AR  26042.14322013  .00000719  00000+0  63288-4 0  9990
2 51807  53.2168  98.2941 0001431  82.4812 277.6342 15.08837399220104
STARLINK-3609           
1 51808U 22017AS  26043.12210113  .00000745  00000+0  64889-4 0  9994
2 51808  53.2175  93.8984 0001485 100.1698 259.9461 15.08839850220109
STARLINK-3607           
1 51809U 22017AT  26042.53329697  .00000066  00000+0  22267-4 0  9997
2 51809  53.2167  96.5037 0001340  87.2568 272.8577 15.08839538220117
STARLINK-3613           
1 51810U 22017AU  26043.10098782 -.00004229  00000+0 -24775-3 0  9993
2 51810  53.2179  84.2108 0001186 103.6533 256.4592 15.08847204220213
STARLINK-3569           
1 51811U 22017AV  26043.12578197 -.00000271  00000+0  10894-5 0  9990
2 51811  53.2170  93.8825 0001426  80.0554 280.0599 15.08838085220100
